ONEWEB-0331             
1 49198U 21083N   25343.45607220 -.00000001  00000+0 -35654-4 0  9997
2 49198  87.9183  13.1293 0001573 105.7446 254.3859 13.18685134205004
ONEWEB-0333             
1 49199U 21083P   25343.45795266 -.00000249  00000+0 -71552-3 0  9996
2 49199  87.8969 357.9651 0001798  92.9595 267.1740 13.13471182206007
ONEWEB-0334             
1 49200U 21083Q   25343.44753796 -.00000009  00000+0 -54713-4 0  9995
2 49200  87.9192 312.3007 0002705  71.6991 288.4436 13.20770843211741
ONEWEB-0335             
1 49201U 21083R   25343.45287219 -.00000215  00000+0 -62443-3 0  9996
2 49201  87.8970 357.9544 0001665  98.2648 261.8670 13.13470713206018
ONEWEB-0336             
1 49202U 21083S   25343.50027531  .00000385  00000+0  10198-2 0  9997
2 49202  87.8975 357.9413 0001482 104.0984 256.0310 13.13471048206014
ONEWEB-0337             
1 49203U 21083T   25343.43411418  .00000143  00000+0  35645-3 0  9998
2 49203  87.8976 357.9657 0001510  92.6663 267.4639 13.13470344206001
ONEWEB-0338             
1 49204U 21083U   25343.42228657  .00000147  00000+0  32910-3 0  9995
2 49204  87.9196 312.3086 0002035  77.8590 282.2772 13.20772605211760
ONEWEB-0339             
1 49205U 21083V   25343.44271706 -.00000077  00000+0 -24478-3 0  9995
2 49205  87.8979 357.9462 0001722  86.7677 273.3649 13.13470481205989
